[{"OBJECT_NAME":"STARLINK-3256","OBJECT_ID":"2021-125AY","EPOCH":"2026-03-09T17:19:44.965344","MEAN_MOTION":15.08835467,"ECCENTRICITY":0.00011136,"INCLINATION":53.2159,"RA_OF_ASC_NODE":238.975,"ARG_OF_PERICENTER":98.6537,"MEAN_ANOMALY":261.4581,"EPHEMERIS_TYPE":0,"CLASSIFICATION_TYPE":"U","NORAD_CAT_ID":50202,"ELEMENT_SET_NO":999,"REV_AT_EPOCH":23673,"BSTAR":1.6752708e-5,"MEAN_MOTION_DOT":-2.1e-7,"MEAN_MOTION_DDOT":0},{"OBJECT_NAME":"OBJECT A","OBJECT_ID":"2025-292A","EPOCH":"2026-03-09T21:45:44.016480","MEAN_MOTION":15.05451809,"ECCENTRICITY":0.00146319,"INCLINATION":97.6364,"RA_OF_ASC_NODE":145.598,"ARG_OF_PERICENTER":341.1551,"MEAN_ANOMALY":18.9132,"EPHEMERIS_TYPE":0,"CLASSIFICATION_TYPE":"U","NORAD_CAT_ID":66993,"ELEMENT_SET_NO":999,"REV_AT_EPOCH":1350,"BSTAR":0.00038878249,"MEAN_MOTION_DOT":5.535e-5,"MEAN_MOTION_DDOT":0}]
